0 COSMOS 2341
1 24772U 97017A   13281.57770265  .00000044  00000-0  31990-4 0  5507
2 24772 082.9202 307.1958 0026690 144.8270 324.9033 13.71302102824771
0 COSMOS 2341
1 24772U 97017A   13282.67604194  .00000042  00000-0  29687-4 0  5515
2 24772 082.9200 306.3847 0026754 141.8855 346.9598 13.71302007824925
0 COSMOS 2341
1 24772U 97017A   13283.69938613  .00000044  00000-0  32479-4 0  5520
2 24772 082.9199 305.6289 0026811 139.1457 358.7943 13.71302003825063
0 COSMOS 2341
1 24772U 97017A   13286.16126868  .00000035  00000-0  21677-4 0  5546
2 24772 082.9194 303.8108 0026893 132.6394 272.0233 13.71302302825406
0 COSMOS 2341
1 24772U 97017A   13287.18814137  .00000037  00000-0  24336-4 0  5550
2 24772 082.9193 303.0523 0026929 129.9272 301.2406 13.71302488825549
0 COSMOS 2341
1 24772U 97017A   13288.50907529  .00000027  00000-0  12752-4 0  5564
2 24772 082.9193 302.0765 0026928 126.4042 342.1422 13.71302644825728
0 COSMOS 2341
1 24772U 97017A   13289.54330325  .00000019  00000-0  44045-5 0  5576
2 24772 082.9193 301.3124 0026984 123.7185 047.6242 13.71302822825869
0 COSMOS 2341
1 24772U 97017A   13290.62511944  .00000014  00000-0 -10497-5 0  5586
2 24772 082.9193 300.5132 0027005 120.8674 348.0688 13.71302809826010
0 COSMOS 2341
1 24772U 97017A   13291.79069897  .00000035  00000-0  22245-4 0  5596
2 24772 082.9195 299.6521 0027030 117.7869 342.0253 13.71302832826176
0 COSMOS 2341
1 24772U 97017A   13293.17298264  .00000037  00000-0  24022-4 0  5601
2 24772 082.9197 298.6309 0027039 114.1225 325.7662 13.71302826826363
0 COSMOS 2341
1 24772U 97017A   13294.18808127  .00000038  00000-0  25412-4 0  5614
2 24772 082.9197 297.8811 0027045 111.4244 296.8790 13.71302777826501
0 COSMOS 2341
1 24772U 97017A   13295.52358021  .00000020  00000-0  55285-5 0  5620
2 24772 082.9197 296.8948 0027051 107.9383 049.6082 13.71302530826686
